{"type": "FeatureCollection", "features": [ {"type": "Feature", "properties": {"norad_id": 34432, "name": "COSMOS 2251 DEB", "group": "cosmos-2251-debris", "lat": -22.042214841082238, "lon": -73.70293298755566, "alt_km": 764.5700960712184, "timestamp": "2025-12-14T07:33:19.873419+00:00", "meta": {"OBJECT_NAME": "COSMOS 2251 DEB", "OBJECT_ID": "1993-036RZ", "EPOCH": "2025-12-13T10:22:18.045120", "MEAN_MOTION": 14.02913634, "ECCENTRICITY": 0.01824546, "INCLINATION": 73.8285, "RA_OF_ASC_NODE": 101.1046, "ARG_OF_PERICENTER": 183.6785, "MEAN_ANOMALY": 242.3147, "EPHEMERIS_TYPE": 0, "CLASSIFICATION_TYPE": "U", "NORAD_CAT_ID": 34432, "ELEMENT_SET_NO": 999, "REV_AT_EPOCH": 85694, "BSTAR": 0.0020020513, "MEAN_MOTION_DOT": 3.57e-05, "MEAN_MOTION_DDOT": 0}, "tle": {"line1": "1 34432U 93036RZ  25347.43215330  .00003570  00000+0  20021-2 0  9990", "line2": "2 34432  73.8285 101.1046 0182454 183.6785 242.3147 14.02913634856944"}}, "geometry": {"type": "Point", "coordinates": [-73.70293298755566, -22.042214841082238]}}, {"type": "Feature", "properties": {"norad_id": 34433, "name": "COSMOS 2251 DEB", "group": "cosmos-2251-debris", "lat": -69.88380569195442, "lon": 100.6329779542058, "alt_km": 747.3055670274462, "timestamp": "2025-12-14T07:33:19.873430+00:00", "meta": {"OBJECT_NAME": "COSMOS 2251 DEB", "OBJECT_ID": "1993-036SA", "EPOCH": "2025-12-13T13:13:15.212064", "MEAN_MOTION": 14.12858633, "ECCENTRICITY": 0.01523461, "INCLINATION": 74.0111, "RA_OF_ASC_NODE": 153.5036, "ARG_OF_PERICENTER": 291.4042, "MEAN_ANOMALY": 67.0903, "EPHEMERIS_TYPE": 0, "CLASSIFICATION_TYPE": "U", "NORAD_CAT_ID": 34433, "ELEMENT_SET_NO": 999, "REV_AT_EPOCH": 85961, "BSTAR": 0.0014808328, "MEAN_MOTION_DOT": 3.05e-05, "MEAN_MOTION_DDOT": 0}, "tle": {"line1": "1 34433U 93036SA  25347.55087051  .00003050  00000+0  14808-2 0  9990", "line2": "2 34433  74.0111 153.5036 0152346 291.4042  67.0903 14.12858633859614"}}, "geometry": {"type": "Point", "coordinates": [100.6329779542058, -69.88380569195442]}}, {"type": "Feature", "properties": {"norad_id": 34434, "name": "COSMOS 2251 DEB", "group": "cosmos-2251-debris", "lat": 37.67618237626286, "lon": 20.193087306195842, "alt_km": 972.4065835730444, "timestamp": "2025-12-14T07:33:19.873440+00:00", "meta": {"OBJECT_NAME": "COSMOS 2251 DEB", "OBJECT_ID": "1993-036SB", "EPOCH": "2025-12-13T13:06:22.929408", "MEAN_MOTION": 13.8981707, "ECCENTRICITY": 0.02748273, "INCLINATION": 74.0635, "RA_OF_ASC_NODE": 8.7532, "ARG_OF_PERICENTER": 145.8895, "MEAN_ANOMALY": 12.0553, "EPHEMERIS_TYPE": 0, "CLASSIFICATION_TYPE": "U", "NORAD_CAT_ID": 34434, "ELEMENT_SET_NO": 999, "REV_AT_EPOCH": 83977, "BSTAR": 0.0026999004, "MEAN_MOTION_DOT": 4.477e-05, "MEAN_MOTION_DDOT": 0}, "tle": {"line1": "1 34434U 93036SB  25347.54609872  .00004477  00000+0  26999-2 0  9999", "line2": "2 34434  74.0635   8.7532 0274827 145.8895  12.0553 13.89817070839774"}}, "geometry": {"type": "Point", "coordinates": [20.193087306195842, 37.67618237626286]}}, {"type": "Feature", "properties": {"norad_id": 34446, "name": "COSMOS 2251 DEB", "group": "cosmos-2251-debris", "lat": -25.506061965184024, "lon": -117.82478954018215, "alt_km": 697.8355178003821, "timestamp": "2025-12-14T07:33:19.873450+00:00", "meta": {"OBJECT_NAME": "COSMOS 2251 DEB", "OBJECT_ID": "1993-036SP", "EPOCH": "2025-12-13T05:45:25.485120", "MEAN_MOTION": 14.49354389, "ECCENTRICITY": 0.00511338, "INCLINATION": 74.0422, "RA_OF_ASC_NODE": 56.3438, "ARG_OF_PERICENTER": 194.271, "MEAN_ANOMALY": 165.7009, "EPHEMERIS_TYPE": 0, "CLASSIFICATION_TYPE": "U", "NORAD_CAT_ID": 34446, "ELEMENT_SET_NO": 999, "REV_AT_EPOCH": 88701, "BSTAR": 0.00022441589, "MEAN_MOTION_DOT": 8.43e-06, "MEAN_MOTION_DDOT": 0}, "tle": {"line1": "1 34446U 93036SP  25347.23987830  .00000843  00000+0  22442-3 0  9994", "line2": "2 34446  74.0422  56.3438 0051133 194.2710 165.7009 14.49354389887010"}}, "geometry": {"type": "Point", "coordinates": [-117.82478954018215, -25.506061965184024]}}, {"type": "Feature", "properties": {"norad_id": 34449, "name": "COSMOS 2251 DEB", "group": "cosmos-2251-debris", "lat": -66.10667863681356, "lon": -72.35338299918583, "alt_km": 602.0706239981891, "timestamp": "2025-12-14T07:33:19.873461+00:00", "meta": {"OBJECT_NAME": "COSMOS 2251 DEB", "OBJECT_ID": "1993-036SS", "EPOCH": "2025-12-13T16:32:16.812672", "MEAN_MOTION": 14.94973645, "ECCENTRICITY": 0.00231028, "INCLINATION": 74.0327, "RA_OF_ASC_NODE": 68.6428, "ARG_OF_PERICENTER": 110.355, "MEAN_ANOMALY": 15.2154, "EPHEMERIS_TYPE": 0, "CLASSIFICATION_TYPE": "U", "NORAD_CAT_ID": 34449, "ELEMENT_SET_NO": 999, "REV_AT_EPOCH": 88707, "BSTAR": 0.0023907791, "MEAN_MOTION_DOT": 0.0002633, "MEAN_MOTION_DDOT": 0}, "tle": {"line1": "1 34449U 93036SS  25347.68908348  .00026330  00000+0  23908-2 0  9999", "line2": "2 34449  74.0327  68.6428 0023102 110.3550  15.2154 14.94973645887076"}}, "geometry": {"type": "Point", "coordinates": [-72.35338299918583, -66.10667863681356]}}, {"type": "Feature", "properties": {"norad_id": 34451, "name": "COSMOS 2251 DEB", "group": "cosmos-2251-debris", "lat": -44.7231703417602, "lon": -78.84926094564248, "alt_km": 595.8667875996734, "timestamp": "2025-12-14T07:33:19.873471+00:00", "meta": {"OBJECT_NAME": "COSMOS 2251 DEB", "OBJECT_ID": "1993-036SU", "EPOCH": "2025-12-13T16:05:54.766464", "MEAN_MOTION": 14.9566613, "ECCENTRICITY": 0.00242923, "INCLINATION": 74.0456, "RA_OF_ASC_NODE": 85.9906, "ARG_OF_PERICENTER": 104.9645, "MEAN_ANOMALY": 255.4231, "EPHEMERIS_TYPE": 0, "CLASSIFICATION_TYPE": "U", "NORAD_CAT_ID": 34451, "ELEMENT_SET_NO": 999, "REV_AT_EPOCH": 88649, "BSTAR": 0.0025571178, "MEAN_MOTION_DOT": 0.00028693, "MEAN_MOTION_DDOT": 0}, "tle": {"line1": "1 34451U 93036SU  25347.67077276  .00028693  00000+0  25571-2 0  9990", "line2": "2 34451  74.0456  85.9906 0024292 104.9645 255.4231 14.95666130886498"}}, "geometry": {"type": "Point", "coordinates": [-78.84926094564248, -44.7231703417602]}}, {"type": "Feature", "properties": {"norad_id": 34452, "name": "COSMOS 2251 DEB", "group": "cosmos-2251-debris", "lat": 45.692921750356405, "lon": -163.3838641125288, "alt_km": 567.0538470626971, "timestamp": "2025-12-14T07:33:19.873484+00:00", "meta": {"OBJECT_NAME": "COSMOS 2251 DEB", "OBJECT_ID": "1993-036SV", "EPOCH": "2025-12-13T07:46:06.341664", "MEAN_MOTION": 15.11705963, "ECCENTRICITY": 0.00661417, "INCLINATION": 74.0357, "RA_OF_ASC_NODE": 181.6123, "ARG_OF_PERICENTER": 257.9504, "MEAN_ANOMALY": 158.2565, "EPHEMERIS_TYPE": 0, "CLASSIFICATION_TYPE": "U", "NORAD_CAT_ID": 34452, "ELEMENT_SET_NO": 999, "REV_AT_EPOCH": 90671, "BSTAR": 0.0012410735, "MEAN_MOTION_DOT": 0.00022313, "MEAN_MOTION_DDOT": 0}, "tle": {"line1": "1 34452U 93036SV  25347.32368451  .00022313  00000+0  12411-2 0  9993", "line2": "2 34452  74.0357 181.6123 0066141 257.9504 158.2565 15.11705963906711"}}, "geometry": {"type": "Point", "coordinates": [-163.3838641125288, 45.692921750356405]}}, {"type": "Feature", "properties": {"norad_id": 34453, "name": "COSMOS 2251 DEB", "group": "cosmos-2251-debris", "lat": 64.82539212912644, "lon": -121.87838982577476, "alt_km": 221.98484986709354, "timestamp": "2025-12-14T07:33:19.873516+00:00", "meta": {"OBJECT_NAME": "COSMOS 2251 DEB", "OBJECT_ID": "1993-036SW", "EPOCH": "2025-12-12T08:37:33.208896", "MEAN_MOTION": 15.89241275, "ECCENTRICITY": 0.00258649, "INCLINATION": 74.0973, "RA_OF_ASC_NODE": 100.0507, "ARG_OF_PERICENTER": 335.7744, "MEAN_ANOMALY": 24.2271, "EPHEMERIS_TYPE": 0, "CLASSIFICATION_TYPE": "U", "NORAD_CAT_ID": 34453, "ELEMENT_SET_NO": 999, "REV_AT_EPOCH": 88861, "BSTAR": 0.014339777, "MEAN_MOTION_DOT": 0.03551032, "MEAN_MOTION_DDOT": 0.014327016}, "tle": {"line1": "1 34453U 93036SW  25346.35941214  .03551032  14327-1  14340-1 0  9999", "line2": "2 34453  74.0973 100.0507 0025864 335.7744  24.2271 15.89241275888615"}}, "geometry": {"type": "Point", "coordinates": [-121.87838982577476, 64.82539212912644]}}, {"type": "Feature", "properties": {"norad_id": 34454, "name": "COSMOS 2251 DEB", "group": "cosmos-2251-debris", "lat": 27.898555741816104, "lon": -76.55935701283592, "alt_km": 745.2679045493142, "timestamp": "2025-12-14T07:33:19.873529+00:00", "meta": {"OBJECT_NAME": "COSMOS 2251 DEB", "OBJECT_ID": "1993-036SX", "EPOCH": "2025-12-13T13:03:55.922400", "MEAN_MOTION": 14.3881032, "ECCENTRICITY": 0.00356278, "INCLINATION": 74.0588, "RA_OF_ASC_NODE": 276.1552, "ARG_OF_PERICENTER": 338.4806, "MEAN_ANOMALY": 21.4848, "EPHEMERIS_TYPE": 0, "CLASSIFICATION_TYPE": "U", "NORAD_CAT_ID": 34454, "ELEMENT_SET_NO": 999, "REV_AT_EPOCH": 88079, "BSTAR": 0.00037446841, "MEAN_MOTION_DOT": 1.134e-05, "MEAN_MOTION_DDOT": 0}, "tle": {"line1": "1 34454U 93036SX  25347.54439725  .00001134  00000+0  37447-3 0  9997", "line2": "2 34454  74.0588 276.1552 0035627 338.4806  21.4848 14.38810320880796"}}, "geometry": {"type": "Point", "coordinates": [-76.55935701283592, 27.898555741816104]}}, {"type": "Feature", "properties": {"norad_id": 34459, "name": "COSMOS 2251 DEB", "group": "cosmos-2251-debris", "lat": 10.446816148254115, "lon": 68.31030217647422, "alt_km": 1015.5336888817319, "timestamp": "2025-12-14T07:33:19.873539+00:00", "meta": {"OBJECT_NAME": "COSMOS 2251 DEB", "OBJECT_ID": "1993-036TC", "EPOCH": "2025-12-13T10:10:03.891360", "MEAN_MOTION": 14.00502148, "ECCENTRICITY": 0.01920654, "INCLINATION": 74.0791, "RA_OF_ASC_NODE": 252.8667, "ARG_OF_PERICENTER": 322.4941, "MEAN_ANOMALY": 36.2917, "EPHEMERIS_TYPE": 0, "CLASSIFICATION_TYPE": "U", "NORAD_CAT_ID": 34459, "ELEMENT_SET_NO": 999, "REV_AT_EPOCH": 85721, "BSTAR": 0.00077779427, "MEAN_MOTION_DOT": 1.33e-05, "MEAN_MOTION_DDOT": 0}, "tle": {"line1": "1 34459U 93036TC  25347.42365615  .00001330  00000+0  77779-3 0  9995", "line2": "2 34459  74.0791 252.8667 0192065 322.4941  36.2917 14.00502148857215"}}, "geometry": {"type": "Point", "coordinates": [68.31030217647422, 10.446816148254115]}}]}